{
  "norad_id": 61631,
  "name": "STARLINK-32348",
  "history": [
    {
      "epoch": "2026-03-28T07:31:27.202656Z",
      "apogee_km": 483.78442946800806,
      "perigee_km": 482.3319144501047,
      "latitude_deg": 3.9346871403375624e-05,
      "longitude_deg": 114.28125300307548,
      "height_km": 482.861628050009,
      "semi_major_axis_km": 6861.195171959056,
      "eccentricity": 0.00010585,
      "inclination_deg": 43.0025,
      "raan_deg": 52.8803,
      "arg_perigee_deg": 267.8872,
      "mean_anomaly_deg": 92.1859,
      "mean_motion_rev_day": 15.27576969
    },
    {
      "epoch": "2026-03-30T03:27:49.794912Z",
      "apogee_km": 483.8064378967474,
      "perigee_km": 482.2846276109831,
      "latitude_deg": 9.16890311207539e-06,
      "longitude_deg": 163.04275121149462,
      "height_km": 482.8744643929039,
      "semi_major_axis_km": 6861.182532753865,
      "eccentricity": 0.0001109,
      "inclination_deg": 43.0027,
      "raan_deg": 42.5405,
      "arg_perigee_deg": 266.0673,
      "mean_anomaly_deg": 94.0052,
      "mean_motion_rev_day": 15.2758119
    },
    {
      "epoch": "2026-03-30T05:01:59.181600Z",
      "apogee_km": 483.83990542897664,
      "perigee_km": 482.25263929074936,
      "latitude_deg": -2.9874804286381817e-05,
      "longitude_deg": 139.06975065680268,
      "height_km": 482.9348272020974,
      "semi_major_axis_km": 6861.183272359863,
      "eccentricity": 0.00011567,
      "inclination_deg": 43.0028,
      "raan_deg": 42.1711,
      "arg_perigee_deg": 261.904,
      "mean_anomaly_deg": 98.168,
      "mean_motion_rev_day": 15.27580943
    },
    {
      "epoch": "2026-03-30T06:36:08.542368Z",
      "apogee_km": 483.8341641286852,
      "perigee_km": 482.2574643179769,
      "latitude_deg": -2.0334333196965213e-05,
      "longitude_deg": 115.09711020502232,
      "height_km": 482.9330931780138,
      "semi_major_axis_km": 6861.182814223331,
      "eccentricity": 0.0001149,
      "inclination_deg": 43.0028,
      "raan_deg": 41.8019,
      "arg_perigee_deg": 261.9425,
      "mean_anomaly_deg": 98.1296,
      "mean_motion_rev_day": 15.27581096
    },
    {
      "epoch": "2026-03-31T04:34:20.438112Z",
      "apogee_km": 484.04466275941377,
      "perigee_km": 482.0472351793105,
      "latitude_deg": -1.6419527310517703e-06,
      "longitude_deg": 139.47569099297073,
      "height_km": 482.98306793283723,
      "semi_major_axis_km": 6861.182948969362,
      "eccentricity": 0.00014556,
      "inclination_deg": 43.0024,
      "raan_deg": 36.6323,
      "arg_perigee_deg": 260.7729,
      "mean_anomaly_deg": 99.2958,
      "mean_motion_rev_day": 15.27581051
    },
    {
      "epoch": "2026-04-01T04:06:41.711904Z",
      "apogee_km": 483.84660785042524,
      "perigee_km": 482.31806540661,
      "latitude_deg": -2.8752838057182245e-06,
      "longitude_deg": 139.88322787810262,
      "height_km": 482.8411748797561,
      "semi_major_axis_km": 6861.219336628517,
      "eccentricity": 0.00011139,
      "inclination_deg": 43.0039,
      "raan_deg": 31.0952,
      "arg_perigee_deg": 271.354,
      "mean_anomaly_deg": 88.7184,
      "mean_motion_rev_day": 15.27568899
    },
    {
      "epoch": "2026-04-02T05:13:11.189568Z",
      "apogee_km": 483.85723960583346,
      "perigee_km": 482.23800003555607,
      "latitude_deg": -1.632303279828954e-05,
      "longitude_deg": 116.32033446111757,
      "height_km": 482.73440581075556,
      "semi_major_axis_km": 6861.184619820694,
      "eccentricity": 0.000118,
      "inclination_deg": 43.0025,
      "raan_deg": 25.1863,
      "arg_perigee_deg": 276.3836,
      "mean_anomaly_deg": 83.6881,
      "mean_motion_rev_day": 15.27580493
    },
    {
      "epoch": "2026-04-03T18:52:58.973952Z",
      "apogee_km": 483.84649540274677,
      "perigee_km": 482.39876962028575,
      "latitude_deg": -2.3425560680733195e-05,
      "longitude_deg": -99.03704990254221,
      "height_km": 482.7813739110253,
      "semi_major_axis_km": 6861.2596325115155,
      "eccentricity": 0.0001055,
      "inclination_deg": 43.0034,
      "raan_deg": 16.3248,
      "arg_perigee_deg": 279.3863,
      "mean_anomaly_deg": 80.6869,
      "mean_motion_rev_day": 15.27555442
    },
    {
      "epoch": "2026-04-04T19:59:26.929248Z",
      "apogee_km": 484.1107296493101,
      "perigee_km": 481.86028146748686,
      "latitude_deg": 3.668876042411018e-05,
      "longitude_deg": -122.5952062967325,
      "height_km": 482.9124289916509,
      "semi_major_axis_km": 6861.122505558398,
      "eccentricity": 0.000164,
      "inclination_deg": 43.0063,
      "raan_deg": 10.4142,
      "arg_perigee_deg": 262.372,
      "mean_anomaly_deg": 97.6946,
      "mean_motion_rev_day": 15.27601237
    },
    {
      "epoch": "2026-04-05T03:50:14.718912Z",
      "apogee_km": 483.91134787695046,
      "perigee_km": 482.1856225037154,
      "latitude_deg": 2.71247757410182e-05,
      "longitude_deg": 117.53781071243677,
      "height_km": 482.84488943757333,
      "semi_major_axis_km": 6861.185485190333,
      "eccentricity": 0.00012576,
      "inclination_deg": 43.005,
      "raan_deg": 8.5686,
      "arg_perigee_deg": 268.7203,
      "mean_anomaly_deg": 91.3505,
      "mean_motion_rev_day": 15.27580204
    },
    {
      "epoch": "2026-04-06T01:48:25.072416Z",
      "apogee_km": 484.1690845981002,
      "perigee_km": 481.9084644039185,
      "latitude_deg": -3.0589247572599993e-06,
      "longitude_deg": 141.92398018159918,
      "height_km": 482.8555617059752,
      "semi_major_axis_km": 6861.175774501009,
      "eccentricity": 0.00016474,
      "inclination_deg": 43.0066,
      "raan_deg": 3.4002,
      "arg_perigee_deg": 268.0148,
      "mean_anomaly_deg": 92.0515,
      "mean_motion_rev_day": 15.27583447
    },
    {
      "epoch": "2026-04-07T01:20:46.006656Z",
      "apogee_km": 484.07926489037345,
      "perigee_km": 482.0237900313168,
      "latitude_deg": 4.899939003420019e-05,
      "longitude_deg": 142.33228875294404,
      "height_km": 482.881130121082,
      "semi_major_axis_km": 6861.188527460845,
      "eccentricity": 0.00014979,
      "inclination_deg": 43.0067,
      "raan_deg": 357.8624,
      "arg_perigee_deg": 267.0949,
      "mean_anomaly_deg": 92.9732,
      "mean_motion_rev_day": 15.27579188
    },
    {
      "epoch": "2026-04-07T18:36:30.354912Z",
      "apogee_km": 483.94232828140684,
      "perigee_km": 482.2256507898246,
      "latitude_deg": -2.2157016595641663e-06,
      "longitude_deg": -121.37229060981267,
      "height_km": 482.9437999778403,
      "semi_major_axis_km": 6861.220989535615,
      "eccentricity": 0.0001251,
      "inclination_deg": 43.0073,
      "raan_deg": 353.8016,
      "arg_perigee_deg": 264.4888,
      "mean_anomaly_deg": 95.5821,
      "mean_motion_rev_day": 15.27568347
    },
    {
      "epoch": "2026-04-08T00:53:08.139264Z",
      "apogee_km": 483.65583087306277,
      "perigee_km": 482.46884338773816,
      "latitude_deg": -7.003238594692988e-06,
      "longitude_deg": 142.73637481673097,
      "height_km": 482.2506358853079,
      "semi_major_axis_km": 6861.1993371304,
      "eccentricity": 8.65e-05,
      "inclination_deg": 43.0061,
      "raan_deg": 352.3255,
      "arg_perigee_deg": 352.1927,
      "mean_anomaly_deg": 7.8911,
      "mean_motion_rev_day": 15.27575578
    },
    {
      "epoch": "2026-04-09T00:25:28.506720Z",
      "apogee_km": 483.7987760898768,
      "perigee_km": 482.41060967057183,
      "latitude_deg": 1.1807892538318704e-05,
      "longitude_deg": 143.14491543924538,
      "height_km": 482.8626655799598,
      "semi_major_axis_km": 6861.241692880224,
      "eccentricity": 0.00010116,
      "inclination_deg": 43.0075,
      "raan_deg": 346.7856,
      "arg_perigee_deg": 271.5881,
      "mean_anomaly_deg": 88.4855,
      "mean_motion_rev_day": 15.27561433
    },
    {
      "epoch": "2026-04-10T01:31:57.823680Z",
      "apogee_km": 483.77827041895125,
      "perigee_km": 482.25358501535356,
      "latitude_deg": 3.6664180898122186e-05,
      "longitude_deg": 119.58143011631823,
      "height_km": 482.82295438838094,
      "semi_major_axis_km": 6861.152927717152,
      "eccentricity": 0.00011111,
      "inclination_deg": 43.0053,
      "raan_deg": 340.8754,
      "arg_perigee_deg": 267.7455,
      "mean_anomaly_deg": 92.327,
      "mean_motion_rev_day": 15.27591077
    },
    {
      "epoch": "2026-04-11T21:28:21.502848Z",
      "apogee_km": 483.95042781032134,
      "perigee_km": 482.20081859140464,
      "latitude_deg": 8.004248700580602e-06,
      "longitude_deg": 168.33848471461295,
      "height_km": 482.9696473551668,
      "semi_major_axis_km": 6861.212623200862,
      "eccentricity": 0.0001275,
      "inclination_deg": 43.0037,
      "raan_deg": 330.5357,
      "arg_perigee_deg": 262.3113,
      "mean_anomaly_deg": 97.7594,
      "mean_motion_rev_day": 15.27571141
    },
    {
      "epoch": "2026-04-12T22:34:51.564576Z",
      "apogee_km": 483.99370251001346,
      "perigee_km": 482.1382959949551,
      "latitude_deg": -1.2376629729909936e-05,
      "longitude_deg": 144.77224182513643,
      "height_km": 483.1071826043153,
      "semi_major_axis_km": 6861.202999252484,
      "eccentricity": 0.00013521,
      "inclination_deg": 43.0037,
      "raan_deg": 324.6259,
      "arg_perigee_deg": 253.4543,
      "mean_anomaly_deg": 106.616,
      "mean_motion_rev_day": 15.27574355
    },
    {
      "epoch": "2026-04-14T07:32:07.877184Z",
      "apogee_km": 484.1710554166575,
      "perigee_km": 481.9135901958671,
      "latitude_deg": 6.56982672624911e-06,
      "longitude_deg": 1.3451993518630758,
      "height_km": 483.1387941581946,
      "semi_major_axis_km": 6861.179322806262,
      "eccentricity": 0.00016451,
      "inclination_deg": 43.0041,
      "raan_deg": 316.8702,
      "arg_perigee_deg": 253.5722,
      "mean_anomaly_deg": 106.4949,
      "mean_motion_rev_day": 15.27582262
    },
    {
      "epoch": "2026-04-15T16:29:25.588608Z",
      "apogee_km": 484.2443332966586,
      "perigee_km": 481.8648720488518,
      "latitude_deg": 3.7182250000885896e-05,
      "longitude_deg": -142.08687366520044,
      "height_km": 483.31858800631574,
      "semi_major_axis_km": 6861.191602672755,
      "eccentricity": 0.0001734,
      "inclination_deg": 43.0061,
      "raan_deg": 309.1153,
      "arg_perigee_deg": 245.8618,
      "mean_anomaly_deg": 114.2053,
      "mean_motion_rev_day": 15.27578161
    }
  ]
}